{"type": "FeatureCollection", "features": [ {"type": "Feature", "properties": {"norad_id": 30110, "name": "FENGYUN 1C DEB", "group": "fengyun-1c-debris", "lat": -39.855173667517995, "lon": -79.75807013513146, "alt_km": 1077.8899462521176, "timestamp": "2025-12-26T05:31:12.781476+00:00", "meta": {"OBJECT_NAME": "FENGYUN 1C DEB", "OBJECT_ID": "1999-025RP", "EPOCH": "2025-12-25T05:23:44.300256", "MEAN_MOTION": 13.56230288, "ECCENTRICITY": 0.0267201, "INCLINATION": 98.9076, "RA_OF_ASC_NODE": 106.8546, "ARG_OF_PERICENTER": 320.84, "MEAN_ANOMALY": 37.367, "EPHEMERIS_TYPE": 0, "CLASSIFICATION_TYPE": "U", "NORAD_CAT_ID": 30110, "ELEMENT_SET_NO": 999, "REV_AT_EPOCH": 93684, "BSTAR": 0.00029743, "MEAN_MOTION_DOT": 2.23e-06, "MEAN_MOTION_DDOT": 0}, "tle": {"line1": "1 30110U 99025RP  25359.22481829  .00000223  00000+0  29743-3 0  9994", "line2": "2 30110  98.9076 106.8546 0267201 320.8400  37.3670 13.56230288936845"}}, "geometry": {"type": "Point", "coordinates": [-79.75807013513146, -39.855173667517995]}}, {"type": "Feature", "properties": {"norad_id": 30112, "name": "FENGYUN 1C DEB", "group": "fengyun-1c-debris", "lat": 13.671246255948947, "lon": -27.388848594318215, "alt_km": 734.3580996306982, "timestamp": "2025-12-26T05:31:12.781486+00:00", "meta": {"OBJECT_NAME": "FENGYUN 1C DEB", "OBJECT_ID": "1999-025RR", "EPOCH": "2025-12-25T21:00:52.602048", "MEAN_MOTION": 14.22261859, "ECCENTRICITY": 0.02018253, "INCLINATION": 99.283, "RA_OF_ASC_NODE": 334.518, "ARG_OF_PERICENTER": 70.4424, "MEAN_ANOMALY": 291.8423, "EPHEMERIS_TYPE": 0, "CLASSIFICATION_TYPE": "U", "NORAD_CAT_ID": 30112, "ELEMENT_SET_NO": 999, "REV_AT_EPOCH": 97769, "BSTAR": 0.00063698265, "MEAN_MOTION_DOT": 1.691e-05, "MEAN_MOTION_DDOT": 0}, "tle": {"line1": "1 30112U 99025RR  25359.87560882  .00001691  00000+0  63698-3 0  9991", "line2": "2 30112  99.2830 334.5180 0201825  70.4424 291.8423 14.22261859977690"}}, "geometry": {"type": "Point", "coordinates": [-27.388848594318215, 13.671246255948947]}}, {"type": "Feature", "properties": {"norad_id": 30113, "name": "FENGYUN 1C DEB", "group": "fengyun-1c-debris", "lat": -60.12172459521203, "lon": -130.63731269415027, "alt_km": 721.2628091361294, "timestamp": "2025-12-26T05:31:12.781496+00:00", "meta": {"OBJECT_NAME": "FENGYUN 1C DEB", "OBJECT_ID": "1999-025RS", "EPOCH": "2025-12-25T13:26:08.784960", "MEAN_MOTION": 14.45489987, "ECCENTRICITY": 0.0040357, "INCLINATION": 99.0376, "RA_OF_ASC_NODE": 212.5664, "ARG_OF_PERICENTER": 324.846, "MEAN_ANOMALY": 88.4987, "EPHEMERIS_TYPE": 0, "CLASSIFICATION_TYPE": "U", "NORAD_CAT_ID": 30113, "ELEMENT_SET_NO": 999, "REV_AT_EPOCH": 98094, "BSTAR": 0.0020486, "MEAN_MOTION_DOT": 7.25e-05, "MEAN_MOTION_DDOT": 0}, "tle": {"line1": "1 30113U 99025RS  25359.55982390  .00007250  00000+0  20486-2 0  9993", "line2": "2 30113  99.0376 212.5664 0040357 324.8460  88.4987 14.45489987980949"}}, "geometry": {"type": "Point", "coordinates": [-130.63731269415027, -60.12172459521203]}}, {"type": "Feature", "properties": {"norad_id": 30114, "name": "FENGYUN 1C DEB", "group": "fengyun-1c-debris", "lat": 26.585113494709155, "lon": -173.37203872846123, "alt_km": 839.534934859108, "timestamp": "2025-12-26T05:31:12.781506+00:00", "meta": {"OBJECT_NAME": "FENGYUN 1C DEB", "OBJECT_ID": "1999-025RT", "EPOCH": "2025-12-25T23:57:06.229728", "MEAN_MOTION": 14.09661562, "ECCENTRICITY": 0.00823328, "INCLINATION": 98.747, "RA_OF_ASC_NODE": 1.9837, "ARG_OF_PERICENTER": 82.7284, "MEAN_ANOMALY": 332.5628, "EPHEMERIS_TYPE": 0, "CLASSIFICATION_TYPE": "U", "NORAD_CAT_ID": 30114, "ELEMENT_SET_NO": 999, "REV_AT_EPOCH": 97341, "BSTAR": 0.0001548758, "MEAN_MOTION_DOT": 2.38e-06, "MEAN_MOTION_DDOT": 0}, "tle": {"line1": "1 30114U 99025RT  25359.99798877  .00000238  00000+0  15488-3 0  9993", "line2": "2 30114  98.7470   1.9837 0082332  82.7284 332.5628 14.09661562973416"}}, "geometry": {"type": "Point", "coordinates": [-173.37203872846123, 26.585113494709155]}}, {"type": "Feature", "properties": {"norad_id": 30115, "name": "FENGYUN 1C DEB", "group": "fengyun-1c-debris", "lat": -5.860249859019958, "lon": 28.057565454158187, "alt_km": 786.6148428993247, "timestamp": "2025-12-26T05:31:12.781516+00:00", "meta": {"OBJECT_NAME": "FENGYUN 1C DEB", "OBJECT_ID": "1999-025RU", "EPOCH": "2025-12-25T14:53:16.173312", "MEAN_MOTION": 14.19827414, "ECCENTRICITY": 0.0067202, "INCLINATION": 98.6216, "RA_OF_ASC_NODE": 26.5715, "ARG_OF_PERICENTER": 23.5978, "MEAN_ANOMALY": 96.3862, "EPHEMERIS_TYPE": 0, "CLASSIFICATION_TYPE": "U", "NORAD_CAT_ID": 30115, "ELEMENT_SET_NO": 999, "REV_AT_EPOCH": 97511, "BSTAR": 0.00093232, "MEAN_MOTION_DOT": 1.979e-05, "MEAN_MOTION_DDOT": 0}, "tle": {"line1": "1 30115U 99025RU  25359.62032608  .00001979  00000+0  93232-3 0  9993", "line2": "2 30115  98.6216  26.5715 0067202  23.5978  96.3862 14.19827414975119"}}, "geometry": {"type": "Point", "coordinates": [28.057565454158187, -5.860249859019958]}}, {"type": "Feature", "properties": {"norad_id": 30116, "name": "FENGYUN 1C DEB", "group": "fengyun-1c-debris", "lat": 21.867000808173273, "lon": 68.49962294411348, "alt_km": 791.1881313624599, "timestamp": "2025-12-26T05:31:12.781526+00:00", "meta": {"OBJECT_NAME": "FENGYUN 1C DEB", "OBJECT_ID": "1999-025RV", "EPOCH": "2025-12-25T04:28:33.701088", "MEAN_MOTION": 14.29363273, "ECCENTRICITY": 0.00208733, "INCLINATION": 99.3962, "RA_OF_ASC_NODE": 71.1858, "ARG_OF_PERICENTER": 304.1443, "MEAN_ANOMALY": 111.2925, "EPHEMERIS_TYPE": 0, "CLASSIFICATION_TYPE": "U", "NORAD_CAT_ID": 30116, "ELEMENT_SET_NO": 999, "REV_AT_EPOCH": 97687, "BSTAR": 0.0014075611, "MEAN_MOTION_DOT": 3.545e-05, "MEAN_MOTION_DDOT": 0}, "tle": {"line1": "1 30116U 99025RV  25359.18650117  .00003545  00000+0  14076-2 0  9995", "line2": "2 30116  99.3962  71.1858 0020873 304.1443 111.2925 14.29363273976878"}}, "geometry": {"type": "Point", "coordinates": [68.49962294411348, 21.867000808173273]}}, {"type": "Feature", "properties": {"norad_id": 30117, "name": "FENGYUN 1C DEB", "group": "fengyun-1c-debris", "lat": -51.2294443504755, "lon": -0.5377407687653397, "alt_km": 961.9020498958444, "timestamp": "2025-12-26T05:31:12.781536+00:00", "meta": {"OBJECT_NAME": "FENGYUN 1C DEB", "OBJECT_ID": "1999-025RW", "EPOCH": "2025-12-25T21:32:33.351072", "MEAN_MOTION": 14.07171102, "ECCENTRICITY": 0.01642838, "INCLINATION": 98.8054, "RA_OF_ASC_NODE": 348.0112, "ARG_OF_PERICENTER": 172.0749, "MEAN_ANOMALY": 251.6673, "EPHEMERIS_TYPE": 0, "CLASSIFICATION_TYPE": "U", "NORAD_CAT_ID": 30117, "ELEMENT_SET_NO": 999, "REV_AT_EPOCH": 97174, "BSTAR": 0.00015291511, "MEAN_MOTION_DOT": 2.47e-06, "MEAN_MOTION_DDOT": 0}, "tle": {"line1": "1 30117U 99025RW  25359.89760823  .00000247  00000+0  15292-3 0  9998", "line2": "2 30117  98.8054 348.0112 0164283 172.0749 251.6673 14.07171102971743"}}, "geometry": {"type": "Point", "coordinates": [-0.5377407687653397, -51.2294443504755]}}, {"type": "Feature", "properties": {"norad_id": 30118, "name": "FENGYUN 1C DEB", "group": "fengyun-1c-debris", "lat": -59.51926271997128, "lon": 18.83630498725431, "alt_km": 875.0632527666658, "timestamp": "2025-12-26T05:31:12.781546+00:00", "meta": {"OBJECT_NAME": "FENGYUN 1C DEB", "OBJECT_ID": "1999-025RX", "EPOCH": "2025-12-25T23:06:24.209280", "MEAN_MOTION": 14.05125982, "ECCENTRICITY": 0.00848047, "INCLINATION": 98.8034, "RA_OF_ASC_NODE": 3.312, "ARG_OF_PERICENTER": 23.0027, "MEAN_ANOMALY": 6.3055, "EPHEMERIS_TYPE": 0, "CLASSIFICATION_TYPE": "U", "NORAD_CAT_ID": 30118, "ELEMENT_SET_NO": 999, "REV_AT_EPOCH": 97117, "BSTAR": 0.00016198606, "MEAN_MOTION_DOT": 2.27e-06, "MEAN_MOTION_DDOT": 0}, "tle": {"line1": "1 30118U 99025RX  25359.96278020  .00000227  00000+0  16199-3 0  9995", "line2": "2 30118  98.8034   3.3120 0084804  23.0027   6.3055 14.05125982971175"}}, "geometry": {"type": "Point", "coordinates": [18.83630498725431, -59.51926271997128]}}, {"type": "Feature", "properties": {"norad_id": 30119, "name": "FENGYUN 1C DEB", "group": "fengyun-1c-debris", "lat": -9.36676120493255, "lon": -5.8389440114257765, "alt_km": 833.2788448989468, "timestamp": "2025-12-26T05:31:12.781556+00:00", "meta": {"OBJECT_NAME": "FENGYUN 1C DEB", "OBJECT_ID": "1999-025RY", "EPOCH": "2025-12-25T22:56:42.000288", "MEAN_MOTION": 14.22324534, "ECCENTRICITY": 0.01305803, "INCLINATION": 97.9213, "RA_OF_ASC_NODE": 352.5987, "ARG_OF_PERICENTER": 253.574, "MEAN_ANOMALY": 133.5975, "EPHEMERIS_TYPE": 0, "CLASSIFICATION_TYPE": "U", "NORAD_CAT_ID": 30119, "ELEMENT_SET_NO": 999, "REV_AT_EPOCH": 97368, "BSTAR": 0.0013263498, "MEAN_MOTION_DOT": 3.179e-05, "MEAN_MOTION_DDOT": 0}, "tle": {"line1": "1 30119U 99025RY  25359.95604167  .00003179  00000+0  13263-2 0  9997", "line2": "2 30119  97.9213 352.5987 0130580 253.5740 133.5975 14.22324534973685"}}, "geometry": {"type": "Point", "coordinates": [-5.8389440114257765, -9.36676120493255]}}, {"type": "Feature", "properties": {"norad_id": 30120, "name": "FENGYUN 1C DEB", "group": "fengyun-1c-debris", "lat": -31.949555982336353, "lon": -103.27562721805592, "alt_km": 769.7221565890914, "timestamp": "2025-12-26T05:31:12.781566+00:00", "meta": {"OBJECT_NAME": "FENGYUN 1C DEB", "OBJECT_ID": "1999-025RZ", "EPOCH": "2025-12-25T03:37:40.377792", "MEAN_MOTION": 14.27713176, "ECCENTRICITY": 0.00639533, "INCLINATION": 98.8513, "RA_OF_ASC_NODE": 81.2086, "ARG_OF_PERICENTER": 176.124, "MEAN_ANOMALY": 253.7796, "EPHEMERIS_TYPE": 0, "CLASSIFICATION_TYPE": "U", "NORAD_CAT_ID": 30120, "ELEMENT_SET_NO": 999, "REV_AT_EPOCH": 97548, "BSTAR": 0.0019491323, "MEAN_MOTION_DOT": 4.872e-05, "MEAN_MOTION_DDOT": 0}, "tle": {"line1": "1 30120U 99025RZ  25359.15116178  .00004872  00000+0  19491-2 0  9991", "line2": "2 30120  98.8513  81.2086 0063953 176.1240 253.7796 14.27713176975485"}}, "geometry": {"type": "Point", "coordinates": [-103.27562721805592, -31.949555982336353]}}]}